{
  "type": "FeatureCollection",
  "features": [
    {
      "type": "Feature",
      "properties": {
        "norad_id": 28899,
        "name": "INMARSAT 4-F2 (SOUTHPAN/PRN 122)",
        "group": "gnss",
        "lat": 4.804958683985776,
        "lon": 141.84929380515214,
        "alt_km": 35791.8565257501,
        "timestamp": "2025-12-06T18:50:10.409621+00:00",
        "meta_object_name": "INMARSAT 4-F2 (SOUTHPAN/PRN 122)",
        "meta_object_id": "2005-044A",
        "meta_epoch": "2025-12-06T00:21:38.642976",
        "meta_mean_motion": 1.00270863,
        "meta_eccentricity": 0.00034218,
        "meta_inclination": 4.8439,
        "meta_ra_of_asc_node": 43.6708,
        "meta_arg_of_pericenter": 212.8749,
        "meta_mean_anomaly": 327.4264,
        "meta_ephemeris_type": 0,
        "meta_classification_type": "U",
        "meta_norad_cat_id": 28899,
        "meta_element_set_no": 999,
        "meta_rev_at_epoch": 7358,
        "meta_bstar": 0,
        "meta_mean_motion_dot": -2.55e-06,
        "meta_mean_motion_ddot": 0,
        "tle_line1": "1 28899U 05044A   25340.01503059 -.00000255  00000+0  00000+0 0  9997",
        "tle_line2": "2 28899   4.8439  43.6708 0003421 212.8749 327.4264  1.00270863 73585"
      },
      "geometry": {
        "type": "Point",
        "coordinates": [
          141.84929380515214,
          4.804958683985776
        ]
      }
    },
    {
      "type": "Feature",
      "properties": {
        "norad_id": 29486,
        "name": "GPS BIIRM-2 (PRN 31)",
        "group": "gnss",
        "lat": 3.4290330915070824,
        "lon": -23.464328484519957,
        "alt_km": 20339.870475680687,
        "timestamp": "2025-12-06T18:50:10.409634+00:00",
        "meta_object_name": "GPS BIIRM-2 (PRN 31)",
        "meta_object_id": "2006-042A",
        "meta_epoch": "2025-12-05T13:29:33.507168",
        "meta_mean_motion": 2.00554326,
        "meta_eccentricity": 0.01073593,
        "meta_inclination": 54.693,
        "meta_ra_of_asc_node": 159.0256,
        "meta_arg_of_pericenter": 51.7863,
        "meta_mean_anomaly": 320.1689,
        "meta_ephemeris_type": 0,
        "meta_classification_type": "U",
        "meta_norad_cat_id": 29486,
        "meta_element_set_no": 999,
        "meta_rev_at_epoch": 14051,
        "meta_bstar": 0,
        "meta_mean_motion_dot": 7.3e-07,
        "meta_mean_motion_ddot": 0,
        "tle_line1": "1 29486U 06042A   25339.56219337  .00000073  00000+0  00000+0 0  9997",
        "tle_line2": "2 29486  54.6930 159.0256 0107359  51.7863 320.1689  2.00554326140518"
      },
      "geometry": {
        "type": "Point",
        "coordinates": [
          -23.464328484519957,
          3.4290330915070824
        ]
      }
    },
    {
      "type": "Feature",
      "properties": {
        "norad_id": 29601,
        "name": "GPS BIIRM-3 (PRN 12)",
        "group": "gnss",
        "lat": -40.528474927526105,
        "lon": 78.45357405270158,
        "alt_km": 20376.35539339593,
        "timestamp": "2025-12-06T18:50:10.409647+00:00",
        "meta_object_name": "GPS BIIRM-3 (PRN 12)",
        "meta_object_id": "2006-052A",
        "meta_epoch": "2025-12-05T23:11:48.178176",
        "meta_mean_motion": 2.00572974,
        "meta_eccentricity": 0.00876305,
        "meta_inclination": 54.9719,
        "meta_ra_of_asc_node": 221.6671,
        "meta_arg_of_pericenter": 87.3693,
        "meta_mean_anomaly": 273.7261,
        "meta_ephemeris_type": 0,
        "meta_classification_type": "U",
        "meta_norad_cat_id": 29601,
        "meta_element_set_no": 999,
        "meta_rev_at_epoch": 13953,
        "meta_bstar": 0,
        "meta_mean_motion_dot": 4.9e-07,
        "meta_mean_motion_ddot": 0,
        "tle_line1": "1 29601U 06052A   25339.96652984  .00000049  00000+0  00000+0 0  9993",
        "tle_line2": "2 29601  54.9719 221.6671 0087630  87.3693 273.7261  2.00572974139535"
      },
      "geometry": {
        "type": "Point",
        "coordinates": [
          78.45357405270158,
          -40.528474927526105
        ]
      }
    },
    {
      "type": "Feature",
      "properties": {
        "norad_id": 32260,
        "name": "GPS BIIRM-4 (PRN 15)",
        "group": "gnss",
        "lat": 8.34872525863522,
        "lon": 94.12760593873098,
        "alt_km": 20060.326836786637,
        "timestamp": "2025-12-06T18:50:10.409658+00:00",
        "meta_object_name": "GPS BIIRM-4 (PRN 15)",
        "meta_object_id": "2007-047A",
        "meta_epoch": "2025-12-05T06:35:49.168896",
        "meta_mean_motion": 2.0056471,
        "meta_eccentricity": 0.01643532,
        "meta_inclination": 53.9502,
        "meta_ra_of_asc_node": 88.0669,
        "meta_arg_of_pericenter": 85.1619,
        "meta_mean_anomaly": 276.6895,
        "meta_ephemeris_type": 0,
        "meta_classification_type": "U",
        "meta_norad_cat_id": 32260,
        "meta_element_set_no": 999,
        "meta_rev_at_epoch": 13292,
        "meta_bstar": 0,
        "meta_mean_motion_dot": -2.6e-07,
        "meta_mean_motion_ddot": 0,
        "tle_line1": "1 32260U 07047A   25339.27487464 -.00000026  00000+0  00000+0 0  9992",
        "tle_line2": "2 32260  53.9502  88.0669 0164353  85.1619 276.6895  2.00564710132923"
      },
      "geometry": {
        "type": "Point",
        "coordinates": [
          94.12760593873098,
          8.34872525863522
        ]
      }
    },
    {
      "type": "Feature",
      "properties": {
        "norad_id": 32275,
        "name": "COSMOS 2433 (720)",
        "group": "gnss",
        "lat": -21.13556951898006,
        "lon": 152.45936965804933,
        "alt_km": 19123.845011835623,
        "timestamp": "2025-12-06T18:50:10.409670+00:00",
        "meta_object_name": "COSMOS 2433 (720)",
        "meta_object_id": "2007-052A",
        "meta_epoch": "2025-12-05T02:41:16.127808",
        "meta_mean_motion": 2.1310391,
        "meta_eccentricity": 0.00054971,
        "meta_inclination": 65.6874,
        "meta_ra_of_asc_node": 322.462,
        "meta_arg_of_pericenter": 253.0747,
        "meta_mean_anomaly": 106.8638,
        "meta_ephemeris_type": 0,
        "meta_classification_type": "U",
        "meta_norad_cat_id": 32275,
        "meta_element_set_no": 999,
        "meta_rev_at_epoch": 14092,
        "meta_bstar": 0,
        "meta_mean_motion_dot": -4.7e-07,
        "meta_mean_motion_ddot": 0,
        "tle_line1": "1 32275U 07052A   25339.11199222 -.00000047  00000+0  00000+0 0  9992",
        "tle_line2": "2 32275  65.6874 322.4620 0005497 253.0747 106.8638  2.13103910140927"
      },
      "geometry": {
        "type": "Point",
        "coordinates": [
          152.45936965804933,
          -21.13556951898006
        ]
      }
    },
    {
      "type": "Feature",
      "properties": {
        "norad_id": 32276,
        "name": "COSMOS 2432 (719)",
        "group": "gnss",
        "lat": 29.05069615939657,
        "lon": 127.98551215162405,
        "alt_km": 19154.146774709145,
        "timestamp": "2025-12-06T18:50:10.409683+00:00",
        "meta_object_name": "COSMOS 2432 (719)",
        "meta_object_id": "2007-052B",
        "meta_epoch": "2025-12-04T17:08:15.006912",
        "meta_mean_motion": 2.13103047,
        "meta_eccentricity": 0.00112577,
        "meta_inclination": 65.7035,
        "meta_ra_of_asc_node": 322.5994,
        "meta_arg_of_pericenter": 311.684,
        "meta_mean_anomaly": 47.4656,
        "meta_ephemeris_type": 0,
        "meta_classification_type": "U",
        "meta_norad_cat_id": 32276,
        "meta_element_set_no": 999,
        "meta_rev_at_epoch": 14093,
        "meta_bstar": 0,
        "meta_mean_motion_dot": -4.6e-07,
        "meta_mean_motion_ddot": 0,
        "tle_line1": "1 32276U 07052B   25338.71406258 -.00000046  00000+0  00000+0 0  9997",
        "tle_line2": "2 32276  65.7035 322.5994 0011257 311.6840  47.4656  2.13103047140931"
      },
      "geometry": {
        "type": "Point",
        "coordinates": [
          127.98551215162405,
          29.05069615939657
        ]
      }
    },
    {
      "type": "Feature",
      "properties": {
        "norad_id": 32384,
        "name": "GPS BIIRM-5 (PRN 29)",
        "group": "gnss",
        "lat": 31.10433025173308,
        "lon": 77.07822746359749,
        "alt_km": 20097.58341407499,
        "timestamp": "2025-12-06T18:50:10.409695+00:00",
        "meta_object_name": "GPS BIIRM-5 (PRN 29)",
        "meta_object_id": "2007-062A",
        "meta_epoch": "2025-12-06T07:55:36.402816",
        "meta_mean_motion": 2.00576852,
        "meta_eccentricity": 0.00322142,
        "meta_inclination": 55.1879,
        "meta_ra_of_asc_node": 281.903,
        "meta_arg_of_pericenter": 162.6829,
        "meta_mean_anomaly": 10.1914,
        "meta_ephemeris_type": 0,
        "meta_classification_type": "U",
        "meta_norad_cat_id": 32384,
        "meta_element_set_no": 999,
        "meta_rev_at_epoch": 13164,
        "meta_bstar": 0,
        "meta_mean_motion_dot": -3.7e-07,
        "meta_mean_motion_ddot": 0,
        "tle_line1": "1 32384U 07062A   25340.33028244 -.00000037  00000+0  00000+0 0  9994",
        "tle_line2": "2 32384  55.1879 281.9030 0032214 162.6829  10.1914  2.00576852131642"
      },
      "geometry": {
        "type": "Point",
        "coordinates": [
          77.07822746359749,
          31.10433025173308
        ]
      }
    }
  ]
}